From: horizons@ssd.jpl.nasa.gov (Horizons Ephemeris System)
Subject: [Horizons] SMALL BODY #C(500@10)_T(SWAN (P/2005 T4)) (1/1)
Date: February 16, 2021 at 10:55:39 AM PST

Automated mail xmit by MAIL_REQUEST, PID= 12686 Tue Feb 16 10:55:39 2021
++++++++++++++++++++++++++++++++ (part 1 of 1)  +++++++++++++++++++++++++++++++


*******************************************************************************
Ephemeris / MAIL_REQUEST Tue Feb 16 10:55:39 2021 Pasadena, USA  / Horizons
*******************************************************************************
Target body name: SWAN (P/2005 T4)                {source: JPL#6}
Center body name: Sun (10)                        {source: DE431}
Center-site name: BODY CENTER
*******************************************************************************
Start time      : A.D. 2002-Oct-10 00:00:00.0000 TDB
Stop  time      : A.D. 2008-Oct-10 00:00:00.0000 TDB
Step-size       : 20160 minutes
*******************************************************************************
Center geodetic : 0.00000000,0.00000000,0.0000000 {E-lon(deg),Lat(deg),Alt(km)}
Center cylindric: 0.00000000,0.00000000,0.0000000 {E-lon(deg),Dxy(km),Dz(km)}
Center radii    : 696000.0 x 696000.0 x 696000.0 k{Equator, meridian, pole}    
Small perturbers: Yes                             {source: SB431-N16}
Output units    : AU-D
Output type     : GEOMETRIC cartesian states
Output format   : 3 (position, velocity, LT, range, range-rate)
Reference frame : Ecliptic of J2000.0
*******************************************************************************
Initial IAU76/J2000 heliocentric ecliptic osculating elements (au, days, deg.):
 EPOCH=  2453667.5 ! 2005-Oct-24.0000000 (TDB)    RMSW= n.a.                  
  EC= .9302970589572456   QR= .649399439103871    TP= 2453654.0373723088      
  OM= 25.42228787729548   W= 41.44353425389921    IN= 160.0361800933672       
 Equivalent ICRF heliocentric equatorial cartesian coordinates (au, au/d):
  X= 4.420344546390508E-01  Y=-5.493135768382696E-01  Z= 1.505229407593657E-02
 VX=-1.597934570606056E-02 VY=-2.306001896013712E-02 VZ=-4.507052663854282E-03
Comet physical (GM= km^3/s^2; RAD= km):                                        
  GM= n.a.                RAD= n.a.                                           
  M1=  15.4     M2=  n.a.     k1=  10.    k2= n.a.     PHCOF= n.a.            
*******************************************************************************
           JDTDB,            Calendar Date (TDB),                      X,                      Y,                      Z,                     VX,                     VY,                     VZ,                     LT,                     RG,                     RR,
**************************************************************************************************************************************************************************************************************************************************************************
$$SOE
2454013.500000000, A.D. 2006-Oct-05 00:00:00.0000, -4.284276079159151E+00, -1.775471885980813E+00, -8.584100675727623E-02, -9.661871625897538E-03,  2.163129524602567E-04, -1.579943058315658E-03,  2.678912442021767E-02,  4.638393107403110E+00,  8.870678028161747E-03,
2454027.500000000, A.D. 2006-Oct-19 00:00:00.0000, -4.418315128695125E+00, -1.771943165403198E+00, -1.079336904612834E-01, -9.487949109022455E-03,  2.868477866046620E-04, -1.576058378116259E-03,  2.750077254198263E-02,  4.761611160039417E+00,  8.732880429171053E-03,
2454041.500000000, A.D. 2006-Nov-02 00:00:00.0000, -4.549975862150538E+00, -1.767465090836301E+00, -1.299681775930484E-01, -9.322002206963026E-03,  3.520345059219378E-04, -1.571645184206187E-03,  2.820151059139836E-02,  4.882940192206367E+00,  8.600748429410259E-03,
2454055.500000000, A.D. 2006-Nov-16 00:00:00.0000, -4.679365472914261E+00, -1.762108565376589E+00, -1.519377013736068E-01, -9.163403144651687E-03,  4.124264250238940E-04, -1.566791335583308E-03,  2.889178028936561E-02,  5.002456685507067E+00,  8.473881832945569E-03,
2454069.500000000, A.D. 2006-Nov-30 00:00:00.0000, -4.806582783218522E+00, -1.755937236062968E+00, -1.738366215789461E-01, -9.011585627282399E-03,  4.685120545114913E-04, -1.561569854567338E-03,  2.957199212252205E-02,  5.120231713499609E+00,  8.351909636953337E-03,
2454083.500000000, A.D. 2006-Dec-14 00:00:00.0000, -4.931719203982279E+00, -1.749008336470559E+00, -1.956602234106105E-01, -8.866055048088727E-03,  5.207152999325742E-04, -1.556040853385311E-03,  3.024252846466058E-02,  5.236331482153914E+00,  8.234508069566741E-03,
2454097.500000000, A.D. 2006-Dec-28 00:00:00.0000, -5.054859558438561E+00, -1.741373627577096E+00, -2.174045727609596E-01, -8.726361707622969E-03,  5.693986204995499E-04, -1.550256003727403E-03,  3.090374677014323E-02,  5.350817882774191E+00,  8.121380851123962E-03,
2454111.500000000, A.D. 2007-Jan-11 00:00:00.0000, -5.176082658194813E+00, -1.733080101669852E+00, -2.390664031619497E-01, -8.592096759853533E-03,  6.148821500726732E-04, -1.544259142738462E-03,  3.155598141560306E-02,  5.463748810879747E+00,  8.012254042257565E-03,
2454125.500000000, A.D. 2007-Jan-25 00:00:00.0000, -5.295461869272742E+00, -1.724170534810706E+00, -2.606430137433222E-01, -8.462890428148516E-03,  6.574486310516483E-04, -1.538087461916079E-03,  3.219954558416122E-02,  5.575178492447053E+00,  7.906877209308671E-03,
2454139.500000000, A.D. 2007-Feb-08 00:00:00.0000, -5.413065620394591E+00, -1.714683992120118E+00, -2.821321865417710E-01, -8.338405345075461E-03,  6.973459138683468E-04, -1.531773055415837E-03,  3.283473307237690E-02,  5.685157796773430E+00,  7.805019929869973E-03,
2454153.500000000, A.D. 2007-Feb-22 00:00:00.0000, -5.528957773217512E+00, -1.704656246615645E+00, -3.035321237513048E-01, -8.218326632129184E-03,  7.348007710793633E-04, -1.525343617115522E-03,  3.346181944877870E-02,  5.793734437070539E+00,  7.706461085441478E-03,
2454167.500000000, A.D. 2007-Mar-08 00:00:00.0000, -5.643198045581718E+00, -1.694119980861856E+00, -3.248413738716089E-01, -8.102379713927074E-03,  7.700235293010086E-04, -1.518821162655221E-03,  3.408106335058161E-02,  5.900953194983967E+00,  7.611007169280867E-03,
2454181.500000000, A.D. 2007-Mar-22 00:00:00.0000, -5.755842520145005E+00, -1.683105170833619E+00, -3.460587741481517E-01, -7.990315198018974E-03,  8.031923097074285E-04, -1.512225294167965E-03,  3.469270877067934E-02,  6.006856316573669E+00,  7.518484759391165E-03,
2454195.500000000, A.D. 2007-Apr-05 00:00:00.0000, -5.866943904099110E+00, -1.671639426835713E+00, -3.671834197272144E-01, -7.881901305439459E-03,  8.344683023594906E-04, -1.505573115334853E-03,  3.529698604502498E-02,  6.111483683273638E+00,  7.428730328018988E-03,
2454209.500000000, A.D. 2007-Apr-19 00:00:00.0000, -5.976551804652069E+00, -1.659748207343297E+00, -3.882146268136859E-01, -7.776926898857024E-03,  8.639975344257239E-04, -1.498879177329517E-03,  3.589411283488335E-02,  6.214872981963613E+00,  7.341594122032848E-03,
2454223.500000000, A.D. 2007-May-03 00:00:00.0000, -6.084713006398196E+00, -1.647455041823964E+00, -4.091519009644464E-01, -7.675198979184901E-03,  8.919091543870529E-04, -1.492156137336112E-03,  3.648429524543560E-02,  6.317059898649481E+00,  7.256939474647708E-03,
2454237.500000000, A.D. 2007-May-17 00:00:00.0000, -6.191471661879143E+00, -1.634781757540195E+00, -4.299949172730257E-01, -7.576532992011475E-03,  9.183200083206350E-04, -1.485415503214078E-03,  3.706772855865387E-02,  6.418078245356575E+00,  7.174633258464897E-03,
2454251.500000000, A.D. 2007-May-31 00:00:00.0000, -6.296869452897260E+00, -1.621748532832953E+00, -4.507434919632962E-01, -7.480765341871721E-03,  9.433471543922857E-04, -1.478665651172666E-03,  3.764459761621310E-02,  6.517960026428802E+00,  7.094555602288429E-03,
2454265.500000000, A.D. 2007-Jun-14 00:00:00.0000, -6.400945946576288E+00, -1.608374050616312E+00, -4.713975467509478E-01, -7.387752470449867E-03,  9.670854933799722E-04, -1.471913901940343E-03,  3.821507851341219E-02,  6.616735731822009E+00,  7.016605695294135E-03,
2454279.500000000, A.D. 2007-Jun-28 00:00:00.0000, -6.503738726393197E+00, -1.594675763409283E+00, -4.919571051521913E-01, -7.297355133831895E-03,  9.896183766530096E-04, -1.465167246061065E-03,  3.877933926047729E-02,  6.714434451605087E+00,  6.940684359450307E-03,
2454293.500000000, A.D. 2007-Jul-12 00:00:00.0000, -6.605283486743482E+00, -1.580670003148550E+00, -5.124222814719025E-01, -7.209443052519201E-03,  1.011022327299630E-03, -1.458431670663356E-03,  3.933754004894238E-02,  6.811083922082346E+00,  6.866697855618257E-03,
2454307.500000000, A.D. 2007-Jul-26 00:00:00.0000, -6.705614162219771E+00, -1.566372087430723E+00, -5.327932682029469E-01, -7.123894747500023E-03,  1.031365344313355E-03, -1.451712443442977E-03,  3.988983374852184E-02,  6.906710611824330E+00,  6.794558636728625E-03,
2454321.500000000, A.D. 2007-Aug-09 00:00:00.0000, -6.804763013357659E+00, -1.551796448322796E+00, -5.530703310169353E-01, -7.040590587876567E-03,  1.050707189567670E-03, -1.445014846829264E-03,  4.043636622793490E-02,  7.001339777216847E+00,  6.724178953924851E-03,
2454335.500000000, A.D. 2007-Aug-23 00:00:00.0000, -6.902760634520217E+00, -1.536956639739958E+00, -5.732538025672240E-01, -6.959416664250146E-03,  1.069115329719590E-03, -1.438342627206273E-03,  4.097727611059117E-02,  7.094995420159232E+00,  6.655471366594678E-03,
2454349.500000000, A.D. 2007-Sep-06 00:00:00.0000, -6.999636182001990E+00, -1.521865306973708E+00, -5.933440544030059E-01, -6.880278680578916E-03,  1.086647329932072E-03, -1.431698253320555E-03,  4.151269575040167E-02,  7.187700457020798E+00,  6.588366703922559E-03,
2454363.500000000, A.D. 2007-Sep-20 00:00:00.0000, -7.095417496700448E+00, -1.506534379458571E+00, -6.133414980414525E-01, -6.803082114986722E-03,  1.103351114665538E-03, -1.425084798485258E-03,  4.204275193987003E-02,  7.279476841243003E+00,  6.522794998045533E-03,
